start=new Date('2022-10-30T00:00:00.000Z').valueOf();
sats=[{"OBJECT_TYPE":"PAYLOAD","FILE":"3637787","REF_FRAME":"TEME","MEAN_MOTION":"15.08843286","LAUNCH_DATE":"2022-03-03","MEAN_ELEMENT_THEORY":"SGP4","REV_AT_EPOCH":"3795","NORAD_CAT_ID":"51870","PERIOD":"95.437","ARG_OF_PERICENTER":"57.0154","CENTER_NAME":"EARTH","TLE_LINE1":"1 51870U 22022U   22302.85931122 -.00000978  00000-0 -43346-4 0  9999","ECCENTRICITY":"0.00018250","COUNTRY_CODE":"US","DECAY_DATE":null,"OBJECT_NAME":"STARLINK-3591","MEAN_MOTION_DOT":"-0.00000978","MEAN_MOTION_DDOT":"0.0000000000000","TIME_SYSTEM":"UTC","CLASSIFICATION_TYPE":"U","INCLINATION":"53.2154","RCS_SIZE":"LARGE","PERIAPSIS":"538.473","OBJECT_ID":"2022-022U","BSTAR":"-0.00004334600000","SITE":"AFETR","EPHEMERIS_TYPE":"0","RA_OF_ASC_NODE":"116.5854","SEMIMAJOR_AXIS":"6917.870","ELEMENT_SET_NO":"999","GP_ID":"216453255","APOAPSIS":"540.998","EPOCH":"2022-10-29T20:37:24.489408","MEAN_ANOMALY":"303.1013","TLE_LINE2":"2 51870  53.2154 116.5854 0001825  57.0154 303.1013 15.08843286 37951"},{"GP_ID":"216478555","TLE_LINE2":"2 51871  53.2162 117.8246 0001606  61.2254 298.8899 15.08845231 37971","MEAN_ANOMALY":"298.8899","EPOCH":"2022-10-29T13:59:57.786144","APOAPSIS":"540.840","EPHEMERIS_TYPE":"0","SITE":"AFETR","ELEMENT_SET_NO":"999","SEMIMAJOR_AXIS":"6917.864","RA_OF_ASC_NODE":"117.8246","CLASSIFICATION_TYPE":"U","TIME_SYSTEM":"UTC","OBJECT_ID":"2022-022V","BSTAR":"0.00001727800000","PERIAPSIS":"538.618","RCS_SIZE":"LARGE","INCLINATION":"53.2162","DECAY_DATE":null,"COUNTRY_CODE":"US","ECCENTRICITY":"0.00016060","TLE_LINE1":"1 51871U 22022V   22302.58330771 -.00000013  00000-0  17278-4 0  9997","MEAN_MOTION_DDOT":"0.0000000000000","MEAN_MOTION_DOT":"-0.00000013","OBJECT_NAME":"STARLINK-3567","PERIOD":"95.437","CENTER_NAME":"EARTH","ARG_OF_PERICENTER":"61.2254","MEAN_ELEMENT_THEORY":"SGP4","NORAD_CAT_ID":"51871","REV_AT_EPOCH":"3797","REF_FRAME":"TEME","LAUNCH_DATE":"2022-03-03","MEAN_MOTION":"15.08845231","FILE":"3637863","OBJECT_TYPE":"PAYLOAD"},{"MEAN_ELEMENT_THEORY":"SGP4","NORAD_CAT_ID":"51872","REV_AT_EPOCH":"3789","PERIOD":"95.437","CENTER_NAME":"EARTH","ARG_OF_PERICENTER":"61.0573","FILE":"3637863","OBJECT_TYPE":"PAYLOAD","REF_FRAME":"TEME","LAUNCH_DATE":"2022-03-03","MEAN_MOTION":"15.08843098","EPHEMERIS_TYPE":"0","SITE":"AFETR","ELEMENT_SET_NO":"999","SEMIMAJOR_AXIS":"6917.871","RA_OF_ASC_NODE":"116.9015","GP_ID":"216477324","TLE_LINE2":"2 51872  53.2173 116.9015 0001442  61.0573 299.0564 15.08843098 37890","MEAN_ANOMALY":"299.0564","EPOCH":"2022-10-29T18:56:42.842400","APOAPSIS":"540.733","COUNTRY_CODE":"US","DECAY_DATE":null,"ECCENTRICITY":"0.00014420","TLE_LINE1":"1 51872U 22022W   22302.78938475  .00002104  00000-0  15025-3 0  9994","MEAN_MOTION_DDOT":"0.0000000000000","MEAN_MOTION_DOT":"0.00002104","OBJECT_NAME":"STARLINK-3554","CLASSIFICATION_TYPE":"U","TIME_SYSTEM":"UTC","OBJECT_ID":"2022-022W","BSTAR":"0.00015025000000","PERIAPSIS":"538.738","RCS_SIZE":"LARGE","INCLINATION":"53.2173"},{"COUNTRY_CODE":"US","DECAY_DATE":null,"TLE_LINE1":"1 51873U 22022X   22302.83722486 -.00000650  00000-0 -22743-4 0  9996","ECCENTRICITY":"0.00015800","MEAN_MOTION_DDOT":"0.0000000000000","OBJECT_NAME":"STARLINK-3582","MEAN_MOTION_DOT":"-0.00000650","CLASSIFICATION_TYPE":"U","TIME_SYSTEM":"UTC","PERIAPSIS":"538.612","OBJECT_ID":"2022-022X","BSTAR":"-0.00002274300000","INCLINATION":"53.2179","RCS_SIZE":"LARGE","EPHEMERIS_TYPE":"0","SITE":"AFETR","ELEMENT_SET_NO":"999","RA_OF_ASC_NODE":"116.6679","SEMIMAJOR_AXIS":"6917.840","GP_ID":"216453783","MEAN_ANOMALY":"302.0926","EPOCH":"2022-10-29T20:05:36.227904","TLE_LINE2":"2 51873  53.2179 116.6679 0001580  58.0219 302.0926 15.08853143 37907","APOAPSIS":"540.798","FILE":"3637808","OBJECT_TYPE":"PAYLOAD","REF_FRAME":"TEME","MEAN_MOTION":"15.08853143","LAUNCH_DATE":"2022-03-03","MEAN_ELEMENT_THEORY":"SGP4","NORAD_CAT_ID":"51873","REV_AT_EPOCH":"3790","PERIOD":"95.437","CENTER_NAME":"EARTH","ARG_OF_PERICENTER":"58.0219"},{"REF_FRAME":"TEME","MEAN_MOTION":"15.08852625","LAUNCH_DATE":"2022-03-03","FILE":"3637788","OBJECT_TYPE":"PAYLOAD","PERIOD":"95.437","CENTER_NAME":"EARTH","ARG_OF_PERICENTER":"63.6632","MEAN_ELEMENT_THEORY":"SGP4","NORAD_CAT_ID":"51874","REV_AT_EPOCH":"3789","CLASSIFICATION_TYPE":"U","TIME_SYSTEM":"UTC","PERIAPSIS":"538.673","OBJECT_ID":"2022-022Y","BSTAR":"-0.00009036200000","INCLINATION":"53.2180","RCS_SIZE":"LARGE","DECAY_DATE":null,"COUNTRY_CODE":"US","TLE_LINE1":"1 51874U 22022Y   22302.84458981 -.00001726  00000-0 -90362-4 0  9991","ECCENTRICITY":"0.00014940","MEAN_MOTION_DDOT":"0.0000000000000","OBJECT_NAME":"STARLINK-3574","MEAN_MOTION_DOT":"-0.00001726","GP_ID":"216453266","MEAN_ANOMALY":"296.4513","EPOCH":"2022-10-29T20:16:12.559584","TLE_LINE2":"2 51874  53.2180 116.6435 0001494  63.6632 296.4513 15.08852625 37895","APOAPSIS":"540.740","EPHEMERIS_TYPE":"0","SITE":"AFETR","ELEMENT_SET_NO":"999","SEMIMAJOR_AXIS":"6917.842","RA_OF_ASC_NODE":"116.6435"},{"FILE":"3637863","OBJECT_TYPE":"PAYLOAD","MEAN_MOTION":"15.08825684","LAUNCH_DATE":"2022-03-03","REF_FRAME":"TEME","NORAD_CAT_ID":"51875","REV_AT_EPOCH":"3787","MEAN_ELEMENT_THEORY":"SGP4","CENTER_NAME":"EARTH","ARG_OF_PERICENTER":"26.0428","PERIOD":"95.438","MEAN_MOTION_DDOT":"0.0000000000000","OBJECT_NAME":"STARLINK-3585","MEAN_MOTION_DOT":"-0.00003950","DECAY_DATE":null,"COUNTRY_CODE":"US","TLE_LINE1":"1 51875U 22022Z   22302.63213098 -.00003950  00000-0 -23027-3 0  9991","ECCENTRICITY":"0.00017990","PERIAPSIS":"538.545","BSTAR":"-0.00023027000000","OBJECT_ID":"2022-022Z","INCLINATION":"53.2194","RCS_SIZE":"LARGE","CLASSIFICATION_TYPE":"U","TIME_SYSTEM":"UTC","ELEMENT_SET_NO":"999","SEMIMAJOR_AXIS":"6917.924","RA_OF_ASC_NODE":"117.6051","EPHEMERIS_TYPE":"0","SITE":"AFETR","MEAN_ANOMALY":"334.0655","EPOCH":"2022-10-29T15:10:16.116672","TLE_LINE2":"2 51875  53.2194 117.6051 0001799  26.0428 334.0655 15.08825684 37879","APOAPSIS":"541.034","GP_ID":"216479056"},{"MEAN_MOTION_DDOT":"0.0000000000000","MEAN_MOTION_DOT":"-0.00000756","OBJECT_NAME":"STARLINK-3583","DECAY_DATE":null,"COUNTRY_CODE":"US","ECCENTRICITY":"0.00019060","TLE_LINE1":"1 51876U 22022AA  22302.77466389 -.00000756  00000-0 -29403-4 0  9996","OBJECT_ID":"2022-022AA","BSTAR":"-0.00002940300000","PERIAPSIS":"538.405","RCS_SIZE":"LARGE","INCLINATION":"53.2175","CLASSIFICATION_TYPE":"U","TIME_SYSTEM":"UTC","ELEMENT_SET_NO":"999","SEMIMAJOR_AXIS":"6917.859","RA_OF_ASC_NODE":"116.9471","EPHEMERIS_TYPE":"0","SITE":"AFETR","TLE_LINE2":"2 51876  53.2175 116.9471 0001906  49.4349 310.6808 15.08847097 37892","MEAN_ANOMALY":"310.6808","EPOCH":"2022-10-29T18:35:30.960096","APOAPSIS":"541.042","GP_ID":"216477825","FILE":"3637863","OBJECT_TYPE":"PAYLOAD","LAUNCH_DATE":"2022-03-03","MEAN_MOTION":"15.08847097","REF_FRAME":"TEME","NORAD_CAT_ID":"51876","REV_AT_EPOCH":"3789","MEAN_ELEMENT_THEORY":"SGP4","CENTER_NAME":"EARTH","ARG_OF_PERICENTER":"49.4349","PERIOD":"95.437"},{"OBJECT_TYPE":"PAYLOAD","FILE":"3637863","REF_FRAME":"TEME","MEAN_MOTION":"15.08839282","LAUNCH_DATE":"2022-03-03","MEAN_ELEMENT_THEORY":"SGP4","REV_AT_EPOCH":"3802","NORAD_CAT_ID":"51877","PERIOD":"95.438","ARG_OF_PERICENTER":"61.1162","CENTER_NAME":"EARTH","TLE_LINE1":"1 51877U 22022AB  22302.75718804 -.00000618  00000-0 -20717-4 0  9993","ECCENTRICITY":"0.00014080","COUNTRY_CODE":"US","DECAY_DATE":null,"OBJECT_NAME":"STARLINK-3556","MEAN_MOTION_DOT":"-0.00000618","MEAN_MOTION_DDOT":"0.0000000000000","TIME_SYSTEM":"UTC","CLASSIFICATION_TYPE":"U","INCLINATION":"53.2173","RCS_SIZE":"LARGE","PERIAPSIS":"538.774","BSTAR":"-0.00002071700000","OBJECT_ID":"2022-022AB","SITE":"AFETR","EPHEMERIS_TYPE":"0","RA_OF_ASC_NODE":"107.0335","SEMIMAJOR_AXIS":"6917.883","ELEMENT_SET_NO":"999","GP_ID":"216478075","APOAPSIS":"540.722","MEAN_ANOMALY":"298.9971","EPOCH":"2022-10-29T18:10:21.046656","TLE_LINE2":"2 51877  53.2173 107.0335 0001408  61.1162 298.9971 15.08839282 38024"},{"REF_FRAME":"TEME","MEAN_MOTION":"15.08852678","LAUNCH_DATE":"2022-03-03","FILE":"3637863","OBJECT_TYPE":"PAYLOAD","PERIOD":"95.437","CENTER_NAME":"EARTH","ARG_OF_PERICENTER":"56.7815","MEAN_ELEMENT_THEORY":"SGP4","NORAD_CAT_ID":"51878","REV_AT_EPOCH":"3788","CLASSIFICATION_TYPE":"U","TIME_SYSTEM":"UTC","PERIAPSIS":"538.464","OBJECT_ID":"2022-022AC","BSTAR":"-0.00001780500000","INCLINATION":"53.2185","RCS_SIZE":"LARGE","COUNTRY_CODE":"US","DECAY_DATE":null,"TLE_LINE1":"1 51878U 22022AC  22302.70106435 -.00000572  00000-0 -17805-4 0  9993","ECCENTRICITY":"0.00017960","MEAN_MOTION_DDOT":"0.0000000000000","OBJECT_NAME":"STARLINK-3575","MEAN_MOTION_DOT":"-0.00000572","GP_ID":"216478326","MEAN_ANOMALY":"303.3349","EPOCH":"2022-10-29T16:49:31.959840","TLE_LINE2":"2 51878  53.2185 117.2935 0001796  56.7815 303.3349 15.08852678 37889","APOAPSIS":"540.949","EPHEMERIS_TYPE":"0","SITE":"AFETR","ELEMENT_SET_NO":"999","SEMIMAJOR_AXIS":"6917.842","RA_OF_ASC_NODE":"117.2935"},{"CENTER_NAME":"EARTH","ARG_OF_PERICENTER":"61.2476","PERIOD":"95.438","NORAD_CAT_ID":"51879","REV_AT_EPOCH":"3802","MEAN_ELEMENT_THEORY":"SGP4","LAUNCH_DATE":"2022-03-03","MEAN_MOTION":"15.08834056","REF_FRAME":"TEME","FILE":"3637863","OBJECT_TYPE":"PAYLOAD","TLE_LINE2":"2 51879  53.2163 107.0660 0001661  61.2476 298.8683 15.08834056 38029","EPOCH":"2022-10-29T17:59:45.363840","MEAN_ANOMALY":"298.8683","APOAPSIS":"540.913","GP_ID":"216478556","ELEMENT_SET_NO":"999","SEMIMAJOR_AXIS":"6917.899","RA_OF_ASC_NODE":"107.0660","EPHEMERIS_TYPE":"0","SITE":"AFETR","BSTAR":"-0.00011770000000","OBJECT_ID":"2022-022AD","PERIAPSIS":"538.614","RCS_SIZE":"LARGE","INCLINATION":"53.2163","CLASSIFICATION_TYPE":"U","TIME_SYSTEM":"UTC","MEAN_MOTION_DDOT":"0.0000000000000","MEAN_MOTION_DOT":"-0.00002160","OBJECT_NAME":"STARLINK-3572","COUNTRY_CODE":"US","DECAY_DATE":null,"ECCENTRICITY":"0.00016610","TLE_LINE1":"1 51879U 22022AD  22302.74983060 -.00002160  00000-0 -11770-3 0  9994"}];
